ORBCOMM FM103 [+]       
1 40091U 14040F   24056.44737390  .00001016  00000+0  26464-3 0  9999
2 40091  47.0053 110.7147 0002855 255.4859 104.5709 14.56329174511481
ORBCOMM FM114 [+]       
1 41179U 15081A   24056.20722385  .00001309  00000+0  33002-3 0  9996
2 41179  47.0044  21.1542 0002422 307.3841  52.6823 14.56335813434808
ORBCOMM FM119 [-]       
1 41180U 15081B   24056.38192672  .00000985  00000+0  25761-3 0  9999
2 41180  47.0008 289.5223 0001278   2.3132 357.7759 14.56321069436031
ORBCOMM FM105 [-]       
1 41181U 15081C   24055.79519283  .00000518  00000+0  19474-3 0  9991
2 41181  46.9999 252.3116 0001961 324.1227  35.9521 14.44245871431576
ORBCOMM FM110 [+]       
1 41182U 15081D   24056.18425759  .00001574  00000+0  38908-3 0  9996
2 41182  47.0033  20.6756 0000936 155.8805 204.2123 14.56342442434809
ORBCOMM FM118 [+]       
1 41183U 15081E   24055.95573048  .00001500  00000+0  37245-3 0  9998
2 41183  47.0056  22.0421 0001038 148.9878 211.1068 14.56340771434692
ORBCOMM FM112 [+]       
1 41184U 15081F   24055.74237085  .00001090  00000+0  28113-3 0  9992
2 41184  46.9990 291.7681 0001131 341.2554  18.8289 14.56310442435885
ORBCOMM FM113 [+]       
1 41185U 15081G   24055.78803877  .00001354  00000+0  33999-3 0  9996
2 41185  47.0009 291.8067 0000843   0.8458 359.2428 14.56326933435876
